; HEADER_BLOCK_START
; generated for BamDude part-render tests: one object, no object markers, long purge line
; HEADER_BLOCK_END
; filament_colour = #C0C0C0
M83
G90
T0
G1 X18 Y1 Z0.8 F18000
G1 X218 Y1 E12 F1200
; CHANGE_LAYER
; Z_HEIGHT: 0.2
G1 Z0.2 F600
; FEATURE: Outer wall
; LINE_WIDTH: 0.42
G1 X120 Y120 F12000
G1 X125 Y120 E0.2
G1 X125 Y125 E0.2
G1 X120 Y125 E0.2
G1 X120 Y120 E0.2
; CHANGE_LAYER
; Z_HEIGHT: 0.4
G1 Z0.4 F600
; FEATURE: Outer wall
G1 X120 Y120 F12000
G1 X125 Y120 E0.2
G1 X125 Y125 E0.2
G1 X120 Y125 E0.2
G1 X120 Y120 E0.2
; FEATURE: Custom
G1 X150 Y150 E0.5
